{
  "type": "FeatureCollection",
  "features": [
    {
      "type": "Feature",
      "properties": {
        "norad_id": 30389,
        "name": "FENGYUN 1C DEB",
        "group": "fengyun-1c-debris",
        "lat": 46.757396765707746,
        "lon": 52.82019435964973,
        "alt_km": 751.2717784428633,
        "timestamp": "2025-12-07T07:31:36.574301+00:00",
        "meta_object_name": "FENGYUN 1C DEB",
        "meta_object_id": "1999-025ADC",
        "meta_epoch": "2025-12-06T20:12:25.759584",
        "meta_mean_motion": 14.43916328,
        "meta_eccentricity": 0.00139871,
        "meta_inclination": 98.8383,
        "meta_ra_of_asc_node": 61.8536,
        "meta_arg_of_pericenter": 236.7814,
        "meta_mean_anomaly": 240.4637,
        "meta_ephemeris_type": 0,
        "meta_classification_type": "U",
        "meta_norad_cat_id": 30389,
        "meta_element_set_no": 999,
        "meta_rev_at_epoch": 97701,
        "meta_bstar": 0.0041664583,
        "meta_mean_motion_dot": 0.00014214,
        "meta_mean_motion_ddot": 0,
        "tle_line1": "1 30389U 99025ADC 25340.84196481  .00014214  00000+0  41665-2 0  9998",
        "tle_line2": "2 30389  98.8383  61.8536 0013987 236.7814 240.4637 14.43916328977013"
      },
      "geometry": {
        "type": "Point",
        "coordinates": [
          52.82019435964973,
          46.757396765707746
        ]
      }
    },
    {
      "type": "Feature",
      "properties": {
        "norad_id": 30390,
        "name": "FENGYUN 1C DEB",
        "group": "fengyun-1c-debris",
        "lat": 11.116052779451385,
        "lon": -113.80085749602814,
        "alt_km": 746.3863261253373,
        "timestamp": "2025-12-07T07:31:36.574311+00:00",
        "meta_object_name": "FENGYUN 1C DEB",
        "meta_object_id": "1999-025ADD",
        "meta_epoch": "2025-12-06T19:34:17.369184",
        "meta_mean_motion": 14.29646262,
        "meta_eccentricity": 0.00681092,
        "meta_inclination": 98.8237,
        "meta_ra_of_asc_node": 63.9457,
        "meta_arg_of_pericenter": 181.6736,
        "meta_mean_anomaly": 304.7771,
        "meta_ephemeris_type": 0,
        "meta_classification_type": "U",
        "meta_norad_cat_id": 30390,
        "meta_element_set_no": 999,
        "meta_rev_at_epoch": 97299,
        "meta_bstar": 0.0034703846,
        "meta_mean_motion_dot": 9.082e-05,
        "meta_mean_motion_ddot": 0,
        "tle_line1": "1 30390U 99025ADD 25340.81547881  .00009082  00000+0  34704-2 0  9994",
        "tle_line2": "2 30390  98.8237  63.9457 0068109 181.6736 304.7771 14.29646262972991"
      },
      "geometry": {
        "type": "Point",
        "coordinates": [
          -113.80085749602814,
          11.116052779451385
        ]
      }
    },
    {
      "type": "Feature",
      "properties": {
        "norad_id": 30391,
        "name": "FENGYUN 1C DEB",
        "group": "fengyun-1c-debris",
        "lat": -13.59159368985372,
        "lon": 29.5345229981355,
        "alt_km": 823.7258275910199,
        "timestamp": "2025-12-07T07:31:36.574321+00:00",
        "meta_object_name": "FENGYUN 1C DEB",
        "meta_object_id": "1999-025ADE",
        "meta_epoch": "2025-12-06T16:54:10.092672",
        "meta_mean_motion": 14.16197077,
        "meta_eccentricity": 0.0071142,
        "meta_inclination": 98.7811,
        "meta_ra_of_asc_node": 26.7921,
        "meta_arg_of_pericenter": 279.4363,
        "meta_mean_anomaly": 201.3274,
        "meta_ephemeris_type": 0,
        "meta_classification_type": "U",
        "meta_norad_cat_id": 30391,
        "meta_element_set_no": 999,
        "meta_rev_at_epoch": 96793,
        "meta_bstar": 0.001938039,
        "meta_mean_motion_dot": 3.889e-05,
        "meta_mean_motion_ddot": 0,
        "tle_line1": "1 30391U 99025ADE 25340.70428348  .00003889  00000+0  19380-2 0  9991",
        "tle_line2": "2 30391  98.7811  26.7921 0071142 279.4363 201.3274 14.16197077967934"
      },
      "geometry": {
        "type": "Point",
        "coordinates": [
          29.5345229981355,
          -13.59159368985372
        ]
      }
    },
    {
      "type": "Feature",
      "properties": {
        "norad_id": 30392,
        "name": "FENGYUN 1C DEB",
        "group": "fengyun-1c-debris",
        "lat": 31.03494064428514,
        "lon": -174.6151241322665,
        "alt_km": 960.235171504859,
        "timestamp": "2025-12-07T07:31:36.574331+00:00",
        "meta_object_name": "FENGYUN 1C DEB",
        "meta_object_id": "1999-025ADF",
        "meta_epoch": "2025-12-06T19:45:27.463392",
        "meta_mean_motion": 14.07430034,
        "meta_eccentricity": 0.0181328,
        "meta_inclination": 98.7859,
        "meta_ra_of_asc_node": 359.5685,
        "meta_arg_of_pericenter": 13.5588,
        "meta_mean_anomaly": 170.1827,
        "meta_ephemeris_type": 0,
        "meta_classification_type": "U",
        "meta_norad_cat_id": 30392,
        "meta_element_set_no": 999,
        "meta_rev_at_epoch": 96587,
        "meta_bstar": 0.0011576088,
        "meta_mean_motion_dot": 2.221e-05,
        "meta_mean_motion_ddot": 0,
        "tle_line1": "1 30392U 99025ADF 25340.82323453  .00002221  00000+0  11576-2 0  9994",
        "tle_line2": "2 30392  98.7859 359.5685 0181328  13.5588 170.1827 14.07430034965876"
      },
      "geometry": {
        "type": "Point",
        "coordinates": [
          -174.6151241322665,
          31.03494064428514
        ]
      }
    },
    {
      "type": "Feature",
      "properties": {
        "norad_id": 30393,
        "name": "FENGYUN 1C DEB",
        "group": "fengyun-1c-debris",
        "lat": 44.61852765916435,
        "lon": 29.934165385771596,
        "alt_km": 926.0678472607142,
        "timestamp": "2025-12-07T07:31:36.574341+00:00",
        "meta_object_name": "FENGYUN 1C DEB",
        "meta_object_id": "1999-025ADG",
        "meta_epoch": "2025-12-06T21:51:51.498144",
        "meta_mean_motion": 13.98976862,
        "meta_eccentricity": 0.00695429,
        "meta_inclination": 99.1647,
        "meta_ra_of_asc_node": 38.6978,
        "meta_arg_of_pericenter": 276.1187,
        "meta_mean_anomaly": 262.1613,
        "meta_ephemeris_type": 0,
        "meta_classification_type": "U",
        "meta_norad_cat_id": 30393,
        "meta_element_set_no": 999,
        "meta_rev_at_epoch": 96248,
        "meta_bstar": 0.00043676099,
        "meta_mean_motion_dot": 5.98e-06,
        "meta_mean_motion_ddot": 0,
        "tle_line1": "1 30393U 99025ADG 25340.91101271  .00000598  00000+0  43676-3 0  9999",
        "tle_line2": "2 30393  99.1647  38.6978 0069542 276.1187 262.1613 13.98976862962484"
      },
      "geometry": {
        "type": "Point",
        "coordinates": [
          29.934165385771596,
          44.61852765916435
        ]
      }
    },
    {
      "type": "Feature",
      "properties": {
        "norad_id": 30394,
        "name": "FENGYUN 1C DEB",
        "group": "fengyun-1c-debris",
        "lat": 73.19978514876169,
        "lon": -23.970727947657796,
        "alt_km": 850.8298189267389,
        "timestamp": "2025-12-07T07:31:36.574351+00:00",
        "meta_object_name": "FENGYUN 1C DEB",
        "meta_object_id": "1999-025ADH",
        "meta_epoch": "2025-12-06T16:16:28.920000",
        "meta_mean_motion": 13.95779231,
        "meta_eccentricity": 0.00899679,
        "meta_inclination": 99.4354,
        "meta_ra_of_asc_node": 8.7981,
        "meta_arg_of_pericenter": 117.6815,
        "meta_mean_anomaly": 7.4698,
        "meta_ephemeris_type": 0,
        "meta_classification_type": "U",
        "meta_norad_cat_id": 30394,
        "meta_element_set_no": 999,
        "meta_rev_at_epoch": 96019,
        "meta_bstar": 0.00064948965,
        "meta_mean_motion_dot": 8.71e-06,
        "meta_mean_motion_ddot": 0,
        "tle_line1": "1 30394U 99025ADH 25340.67811250  .00000871  00000+0  64949-3 0  9998",
        "tle_line2": "2 30394  99.4354   8.7981 0089967 117.6815   7.4698 13.95779231960192"
      },
      "geometry": {
        "type": "Point",
        "coordinates": [
          -23.970727947657796,
          73.19978514876169
        ]
      }
    },
    {
      "type": "Feature",
      "properties": {
        "norad_id": 30395,
        "name": "FENGYUN 1C DEB",
        "group": "fengyun-1c-debris",
        "lat": -29.907892718130192,
        "lon": 171.8417044175745,
        "alt_km": 1026.1058155783148,
        "timestamp": "2025-12-07T07:31:36.574361+00:00",
        "meta_object_name": "FENGYUN 1C DEB",
        "meta_object_id": "1999-025ADJ",
        "meta_epoch": "2025-12-06T20:47:22.253856",
        "meta_mean_motion": 13.9667935,
        "meta_eccentricity": 0.01607592,
        "meta_inclination": 98.9309,
        "meta_ra_of_asc_node": 356.5967,
        "meta_arg_of_pericenter": 42.3237,
        "meta_mean_anomaly": 79.2776,
        "meta_ephemeris_type": 0,
        "meta_classification_type": "U",
        "meta_norad_cat_id": 30395,
        "meta_element_set_no": 999,
        "meta_rev_at_epoch": 95941,
        "meta_bstar": 0.00089679412,
        "meta_mean_motion_dot": 1.345e-05,
        "meta_mean_motion_ddot": 0,
        "tle_line1": "1 30395U 99025ADJ 25340.86622979  .00001345  00000+0  89679-3 0  9992",
        "tle_line2": "2 30395  98.9309 356.5967 0160759  42.3237  79.2776 13.96679350959415"
      },
      "geometry": {
        "type": "Point",
        "coordinates": [
          171.8417044175745,
          -29.907892718130192
        ]
      }
    }
  ]
}